{
  "norad_id": 58490,
  "name": "STARLINK-30978",
  "history": [
    {
      "epoch": "2026-05-04T15:18:33.412608Z",
      "apogee_km": 483.97359347176825,
      "perigee_km": 482.14165450716246,
      "latitude_deg": 5.2770528708888056e-05,
      "longitude_deg": 15.442682350711854,
      "height_km": 482.91398573667095,
      "semi_major_axis_km": 6861.194623989465,
      "eccentricity": 0.0001335,
      "inclination_deg": 43.0014,
      "raan_deg": 107.6062,
      "arg_perigee_deg": 265.0159,
      "mean_anomaly_deg": 95.0541,
      "mean_motion_rev_day": 15.27577152
    },
    {
      "epoch": "2026-05-05T14:50:53.660832Z",
      "apogee_km": 483.9658682064901,
      "perigee_km": 482.0900257099911,
      "latitude_deg": 4.6945653337985206e-05,
      "longitude_deg": 15.852894211786724,
      "height_km": 482.8659000980421,
      "semi_major_axis_km": 6861.16494695824,
      "eccentricity": 0.0001367,
      "inclination_deg": 43.0012,
      "raan_deg": 102.0675,
      "arg_perigee_deg": 266.2611,
      "mean_anomaly_deg": 93.8085,
      "mean_motion_rev_day": 15.27587063
    },
    {
      "epoch": "2026-05-06T06:32:27.377376Z",
      "apogee_km": 483.92356421544264,
      "perigee_km": 482.13979758178266,
      "latitude_deg": 3.1900910530696207e-05,
      "longitude_deg": 136.1255138089558,
      "height_km": 482.90380405511445,
      "semi_major_axis_km": 6861.168680898612,
      "eccentricity": 0.00012999,
      "inclination_deg": 43.0014,
      "raan_deg": 98.3751,
      "arg_perigee_deg": 263.8614,
      "mean_anomaly_deg": 96.209,
      "mean_motion_rev_day": 15.27585816
    },
    {
      "epoch": "2026-05-07T13:55:35.571648Z",
      "apogee_km": 484.16612078458184,
      "perigee_km": 481.90605037019213,
      "latitude_deg": -3.710087388730397e-05,
      "longitude_deg": 16.665531463180177,
      "height_km": 482.906030926484,
      "semi_major_axis_km": 6861.173085577387,
      "eccentricity": 0.0001647,
      "inclination_deg": 43.0012,
      "raan_deg": 90.9883,
      "arg_perigee_deg": 265.2832,
      "mean_anomaly_deg": 94.7831,
      "mean_motion_rev_day": 15.27584345
    },
    {
      "epoch": "2026-05-08T05:37:10.007040Z",
      "apogee_km": 483.8254226169702,
      "perigee_km": 482.2981197705021,
      "latitude_deg": -5.6658944828864635e-06,
      "longitude_deg": 136.93529762464203,
      "height_km": 482.8523505568083,
      "semi_major_axis_km": 6861.198771193736,
      "eccentricity": 0.0001113,
      "inclination_deg": 43.0003,
      "raan_deg": 87.296,
      "arg_perigee_deg": 268.9429,
      "mean_anomaly_deg": 91.1295,
      "mean_motion_rev_day": 15.27575767
    },
    {
      "epoch": "2026-05-09T05:09:30.432384Z",
      "apogee_km": 483.82120827560175,
      "perigee_km": 482.26262287313966,
      "latitude_deg": 2.2577674945679256e-05,
      "longitude_deg": 137.34480689404734,
      "height_km": 482.8624963571569,
      "semi_major_axis_km": 6861.17891557437,
      "eccentricity": 0.00011358,
      "inclination_deg": 43.0007,
      "raan_deg": 81.7573,
      "arg_perigee_deg": 266.7607,
      "mean_anomaly_deg": 93.3115,
      "mean_motion_rev_day": 15.27582398
    },
    {
      "epoch": "2026-05-10T20:23:25.477152Z",
      "apogee_km": 483.9314228424255,
      "perigee_km": 482.1955391207375,
      "latitude_deg": 1.1777698176146636e-05,
      "longitude_deg": -101.97745944661189,
      "height_km": 482.8788414842206,
      "semi_major_axis_km": 6861.200480981582,
      "eccentricity": 0.0001265,
      "inclination_deg": 43.0027,
      "raan_deg": 72.5256,
      "arg_perigee_deg": 267.4591,
      "mean_anomaly_deg": 92.6116,
      "mean_motion_rev_day": 15.27575196
    },
    {
      "epoch": "2026-05-11T02:40:03.060192Z",
      "apogee_km": 483.9204833189333,
      "perigee_km": 482.2062810154539,
      "latitude_deg": 3.082191939939193e-05,
      "longitude_deg": 162.1317730960117,
      "height_km": 482.8631904870548,
      "semi_major_axis_km": 6861.200382167193,
      "eccentricity": 0.00012492,
      "inclination_deg": 43.0031,
      "raan_deg": 71.0492,
      "arg_perigee_deg": 268.4694,
      "mean_anomaly_deg": 91.6015,
      "mean_motion_rev_day": 15.27575229
    },
    {
      "epoch": "2026-05-12T19:28:06.699360Z",
      "apogee_km": 483.84993485308223,
      "perigee_km": 482.23344115418877,
      "latitude_deg": 1.0652613150648717e-05,
      "longitude_deg": -101.15694927393054,
      "height_km": 482.85573718410177,
      "semi_major_axis_km": 6861.178688003635,
      "eccentricity": 0.0001178,
      "inclination_deg": 43.0056,
      "raan_deg": 61.4513,
      "arg_perigee_deg": 267.382,
      "mean_anomaly_deg": 92.6897,
      "mean_motion_rev_day": 15.27582474
    }
  ]
}